<?xml version="1.0"?>
<q:quakeml xmlns="http://quakeml.org/xmlns/quakeml/1.2" xmlns:q="http://quakeml.org/xmlns/quakeml/1.2">
	<eventParameters publicID="smi:igf.edu.pl/LUMINEOS#eventParameters">
		<event publicID="smi:igf.edu.pl/LGCD_CIBIS_801806">
			<preferredOriginID>smi:igf.edu.pl/SWIDB_at_dblumineos.igf.edu.pl#Origin801806</preferredOriginID>
			<origin publicID="smi:igf.edu.pl/SWIDB_at_dblumineos.igf.edu.pl#Origin801806">
				<time>
					<value>2016-07-30T19:10:38.707Z</value>
				</time>
				<latitude>
					<value>51.462593</value>
				</latitude>
				<longitude>
					<value>16.100739</value>
				</longitude>
				<depth>
					<value>0.42</value>
				</depth>
				<depthType>from location</depthType>
				<region>Lubin</region>
			</origin>
			<origin publicID="smi:igf.edu.pl/35e575cc-df04-4dd4-80aa-7fcc05c02f80#origin_66027e7d">
				<creationInfo>
					<agencyID>IGF</agencyID>
					<agencyURI>www.igf.edu.pl</agencyURI>
					<author>Tyminska</author>
					<creationTime>2024-03-26T07:51:25.000Z</creationTime>
				</creationInfo>
				<time>
					<value>2016-07-30T19:10:38.179Z</value>
				</time>
				<latitude>
					<value>51.4625926284</value>
				</latitude>
				<longitude>
					<value>16.1007389785</value>
				</longitude>
				<depth>
					<value>0.42</value>
				</depth>
				<depthType>operator assigned</depthType>
				<earthModelID>smi:igf.edu.pl/HybridMTVelocity_LUMINEOS_GDF_LGCD_1D_velocity_model</earthModelID>
				<methodID>smi:igf.edu.pl/SWIP5_HypoDD_V1_BFGS_quasi-newton_method</methodID>
				<region>LUMINEOS</region>
				<arrival publicID="smi:igf.edu.pl/b952b387-a02e-4d04-b505-5bb927c8ec4c#arrival_66027e7d">
					<creationInfo>
						<agencyID>IGF</agencyID>
						<agencyURI>www.igf.edu.pl</agencyURI>
						<author>Tymi�ska</author>
						<creationTime>2024-03-26T07:51:25.000Z</creationTime>
					</creationInfo>
					<phase>Pg</phase>
					<pickID>smi:igf.edu.pl/dblumineos.igf.edu.pl#Pick173945</pickID>
					<azimuth>-3.93002160768</azimuth>
					<distance>0.0188375660697</distance>
					<takeoffAngle>
						<value>30.2783724766</value>
					</takeoffAngle>
					<timeResidual>-0.0749805408207</timeResidual>
					<timeWeight>1</timeWeight>
					<incidenceAngle>
						<value>6.4332038245</value>
					</incidenceAngle>
				</arrival>
				<arrival publicID="smi:igf.edu.pl/4bb132cd-0e29-4212-9c40-b7e64a3605d8#arrival_66027e7d">
					<creationInfo>
						<agencyID>IGF</agencyID>
						<agencyURI>www.igf.edu.pl</agencyURI>
						<author>Tyminska</author>
						<creationTime>2024-03-26T07:51:25.000Z</creationTime>
					</creationInfo>
					<phase>Sg</phase>
					<pickID>smi:igf.edu.pl/dblumineos.igf.edu.pl#Pick173946</pickID>
					<azimuth>-3.93002160768</azimuth>
					<distance>0.0188358622238</distance>
					<takeoffAngle>
						<value>30.3216855265</value>
					</takeoffAngle>
					<timeResidual>0.117612339553</timeResidual>
					<timeWeight>1</timeWeight>
					<incidenceAngle>
						<value>6.41046757529</value>
					</incidenceAngle>
				</arrival>
				<arrival publicID="smi:igf.edu.pl/6525b98f-f112-43ed-a390-afd3c9478fb5#arrival_66027e7d">
					<creationInfo>
						<agencyID>IGF</agencyID>
						<agencyURI>www.igf.edu.pl</agencyURI>
						<author>Tymi�ska</author>
						<creationTime>2024-03-26T07:51:25.000Z</creationTime>
					</creationInfo>
					<phase>Pg</phase>
					<pickID>smi:igf.edu.pl/dblumineos.igf.edu.pl#Pick173947</pickID>
					<azimuth>36.7178556586</azimuth>
					<distance>0.122625877244</distance>
					<takeoffAngle>
						<value>19.1757643196</value>
					</takeoffAngle>
					<timeResidual>-0.324529076641</timeResidual>
					<timeWeight>1</timeWeight>
					<incidenceAngle>
						<value>4.18589634382</value>
					</incidenceAngle>
				</arrival>
				<arrival publicID="smi:igf.edu.pl/4a47a651-de48-4c83-923e-1389248d90c2#arrival_66027e7d">
					<creationInfo>
						<agencyID>IGF</agencyID>
						<agencyURI>www.igf.edu.pl</agencyURI>
						<author>Tymi�ska</author>
						<creationTime>2024-03-26T07:51:25.000Z</creationTime>
					</creationInfo>
					<phase>Sg</phase>
					<pickID>smi:igf.edu.pl/dblumineos.igf.edu.pl#Pick173948</pickID>
					<azimuth>36.7178556586</azimuth>
					<distance>0.122635884776</distance>
					<takeoffAngle>
						<value>19.1520204553</value>
					</takeoffAngle>
					<timeResidual>0.354051586506</timeResidual>
					<timeWeight>1</timeWeight>
					<incidenceAngle>
						<value>4.16076304552</value>
					</incidenceAngle>
				</arrival>
				<arrival publicID="smi:igf.edu.pl/ad396382-a9a0-490c-b84b-ab37835e862e#arrival_66027e7d">
					<creationInfo>
						<agencyID>IGF</agencyID>
						<agencyURI>www.igf.edu.pl</agencyURI>
						<author>Tymi�ska</author>
						<creationTime>2024-03-26T07:51:25.000Z</creationTime>
					</creationInfo>
					<phase>Pg</phase>
					<pickID>smi:igf.edu.pl/dblumineos.igf.edu.pl#Pick173949</pickID>
					<azimuth>-107.708812666</azimuth>
					<distance>0.0452596162443</distance>
					<takeoffAngle>
						<value>19.1757643196</value>
					</takeoffAngle>
					<timeResidual>-0.0473102614847</timeResidual>
					<timeWeight>1</timeWeight>
					<incidenceAngle>
						<value>4.18589634382</value>
					</incidenceAngle>
				</arrival>
				<arrival publicID="smi:igf.edu.pl/263318e4-d3fc-4656-b95b-5a7408b5d26a#arrival_66027e7d">
					<creationInfo>
						<agencyID>IGF</agencyID>
						<agencyURI>www.igf.edu.pl</agencyURI>
						<author>Tymi�ska</author>
						<creationTime>2024-03-26T07:51:25.000Z</creationTime>
					</creationInfo>
					<phase>Sg</phase>
					<pickID>smi:igf.edu.pl/dblumineos.igf.edu.pl#Pick173950</pickID>
					<azimuth>-107.708812666</azimuth>
					<distance>0.0452698077459</distance>
					<takeoffAngle>
						<value>19.1520204553</value>
					</takeoffAngle>
					<timeResidual>0.101925844669</timeResidual>
					<timeWeight>1</timeWeight>
					<incidenceAngle>
						<value>4.16076304552</value>
					</incidenceAngle>
				</arrival>
				<arrival publicID="smi:igf.edu.pl/c01e6b0a-9c9c-4100-90e8-8358706ebd2d#arrival_66027e7d">
					<creationInfo>
						<agencyID>IGF</agencyID>
						<agencyURI>www.igf.edu.pl</agencyURI>
						<author>Tymi�ska</author>
						<creationTime>2024-03-26T07:51:25.000Z</creationTime>
					</creationInfo>
					<phase>Pg</phase>
					<pickID>smi:igf.edu.pl/dblumineos.igf.edu.pl#Pick173951</pickID>
					<azimuth>-20.7457786428</azimuth>
					<distance>0.0907225326066</distance>
					<takeoffAngle>
						<value>19.1757643196</value>
					</takeoffAngle>
					<timeResidual>-0.216600465274</timeResidual>
					<timeWeight>1</timeWeight>
					<incidenceAngle>
						<value>4.18589634382</value>
					</incidenceAngle>
				</arrival>
				<arrival publicID="smi:igf.edu.pl/f6cc6b12-d1a1-4a2f-8c2b-58e64f19cb5d#arrival_66027e7d">
					<creationInfo>
						<agencyID>IGF</agencyID>
						<agencyURI>www.igf.edu.pl</agencyURI>
						<author>Tymi�ska</author>
						<creationTime>2024-03-26T07:51:25.000Z</creationTime>
					</creationInfo>
					<phase>Sg</phase>
					<pickID>smi:igf.edu.pl/dblumineos.igf.edu.pl#Pick173952</pickID>
					<azimuth>-20.7457786428</azimuth>
					<distance>0.0907326983525</distance>
					<takeoffAngle>
						<value>19.1520204553</value>
					</takeoffAngle>
					<timeResidual>0.0664490674067</timeResidual>
					<timeWeight>1</timeWeight>
					<incidenceAngle>
						<value>4.16076304552</value>
					</incidenceAngle>
				</arrival>
				<arrival publicID="smi:igf.edu.pl/dcc3971b-f1f3-43a3-a4d0-991b3a5fb36b#arrival_66027e7d">
					<creationInfo>
						<agencyID>IGF</agencyID>
						<agencyURI>www.igf.edu.pl</agencyURI>
						<author>Tymi�ska</author>
						<creationTime>2024-03-26T07:51:25.000Z</creationTime>
					</creationInfo>
					<phase>Pg</phase>
					<pickID>smi:igf.edu.pl/dblumineos.igf.edu.pl#Pick173953</pickID>
					<azimuth>6.10583263676</azimuth>
					<distance>0.144449376414</distance>
					<takeoffAngle>
						<value>18.0800126244</value>
					</takeoffAngle>
					<timeResidual>-0.253378956483</timeResidual>
					<timeWeight>1</timeWeight>
					<incidenceAngle>
						<value>3.95457212209</value>
					</incidenceAngle>
				</arrival>
				<arrival publicID="smi:igf.edu.pl/bf25f354-e092-459b-8525-7f28bcde82ab#arrival_66027e7d">
					<creationInfo>
						<agencyID>IGF</agencyID>
						<agencyURI>www.igf.edu.pl</agencyURI>
						<author>Tymi�ska</author>
						<creationTime>2024-03-26T07:51:25.000Z</creationTime>
					</creationInfo>
					<phase>Sg</phase>
					<pickID>smi:igf.edu.pl/dblumineos.igf.edu.pl#Pick173954</pickID>
					<azimuth>6.10583263676</azimuth>
					<distance>0.144438265733</distance>
					<takeoffAngle>
						<value>18.0862167232</value>
					</takeoffAngle>
					<timeResidual>0.521174082869</timeResidual>
					<timeWeight>1</timeWeight>
					<incidenceAngle>
						<value>3.93683710091</value>
					</incidenceAngle>
				</arrival>
				<arrival publicID="smi:igf.edu.pl/5188b6ef-e033-4bc9-83ae-61988fa41f26#arrival_66027e7d">
					<creationInfo>
						<agencyID>IGF</agencyID>
						<agencyURI>www.igf.edu.pl</agencyURI>
						<author>Tymi�ska</author>
						<creationTime>2024-03-26T07:51:25.000Z</creationTime>
					</creationInfo>
					<phase>Pg</phase>
					<pickID>smi:igf.edu.pl/dblumineos.igf.edu.pl#Pick173955</pickID>
					<azimuth>-5.84611400287</azimuth>
					<distance>0.0901618424122</distance>
					<takeoffAngle>
						<value>19.1757643196</value>
					</takeoffAngle>
					<timeResidual>-0.209294918841</timeResidual>
					<timeWeight>1</timeWeight>
					<incidenceAngle>
						<value>4.18589634382</value>
					</incidenceAngle>
				</arrival>
				<arrival publicID="smi:igf.edu.pl/b06935a5-987f-405b-83a6-e3da2074b319#arrival_66027e7d">
					<creationInfo>
						<agencyID>IGF</agencyID>
						<agencyURI>www.igf.edu.pl</agencyURI>
						<author>Tymi�ska</author>
						<creationTime>2024-03-26T07:51:25.000Z</creationTime>
					</creationInfo>
					<phase>Sg</phase>
					<pickID>smi:igf.edu.pl/dblumineos.igf.edu.pl#Pick173956</pickID>
					<azimuth>-5.84611400287</azimuth>
					<distance>0.0901720044787</distance>
					<takeoffAngle>
						<value>19.1520204553</value>
					</takeoffAngle>
					<timeResidual>0.146749495821</timeResidual>
					<timeWeight>1</timeWeight>
					<incidenceAngle>
						<value>4.16076304552</value>
					</incidenceAngle>
				</arrival>
				<arrival publicID="smi:igf.edu.pl/bb071175-e464-431a-aaed-d9f62e189f60#arrival_66027e7d">
					<creationInfo>
						<agencyID>IGF</agencyID>
						<agencyURI>www.igf.edu.pl</agencyURI>
						<author>Tymi�ska</author>
						<creationTime>2024-03-26T07:51:25.000Z</creationTime>
					</creationInfo>
					<phase>Pg</phase>
					<pickID>smi:igf.edu.pl/dblumineos.igf.edu.pl#Pick173957</pickID>
					<azimuth>-87.0251490902</azimuth>
					<distance>0.0842674145624</distance>
					<takeoffAngle>
						<value>19.1757643196</value>
					</takeoffAngle>
					<timeResidual>-0.0982136330303</timeResidual>
					<timeWeight>1</timeWeight>
					<incidenceAngle>
						<value>4.18589634382</value>
					</incidenceAngle>
				</arrival>
				<arrival publicID="smi:igf.edu.pl/1836686e-58cc-4320-a5a0-ba86524120f4#arrival_66027e7d">
					<creationInfo>
						<agencyID>IGF</agencyID>
						<agencyURI>www.igf.edu.pl</agencyURI>
						<author>Tymi�ska</author>
						<creationTime>2024-03-26T07:51:25.000Z</creationTime>
					</creationInfo>
					<phase>Sg</phase>
					<pickID>smi:igf.edu.pl/dblumineos.igf.edu.pl#Pick173958</pickID>
					<azimuth>-87.0251490902</azimuth>
					<distance>0.0842775950259</distance>
					<takeoffAngle>
						<value>19.1520204553</value>
					</takeoffAngle>
					<timeResidual>0.198320085037</timeResidual>
					<timeWeight>1</timeWeight>
					<incidenceAngle>
						<value>4.16076304552</value>
					</incidenceAngle>
				</arrival>
				<arrival publicID="smi:igf.edu.pl/1d744130-7f32-481b-9ea3-16b3f342505a#arrival_66027e7d">
					<creationInfo>
						<agencyID>IGF</agencyID>
						<agencyURI>www.igf.edu.pl</agencyURI>
						<author>Tymi�ska</author>
						<creationTime>2024-03-26T07:51:25.000Z</creationTime>
					</creationInfo>
					<phase>Pg</phase>
					<pickID>smi:igf.edu.pl/dblumineos.igf.edu.pl#Pick173959</pickID>
					<azimuth>-33.0084264126</azimuth>
					<distance>0.0587763871589</distance>
					<takeoffAngle>
						<value>19.1757643196</value>
					</takeoffAngle>
					<timeResidual>-0.0977192870891</timeResidual>
					<timeWeight>1</timeWeight>
					<incidenceAngle>
						<value>4.18589634382</value>
					</incidenceAngle>
				</arrival>
				<arrival publicID="smi:igf.edu.pl/d7f1b8df-c321-409e-ae77-d3d066d2f66a#arrival_66027e7d">
					<creationInfo>
						<agencyID>IGF</agencyID>
						<agencyURI>www.igf.edu.pl</agencyURI>
						<author>Tymi�ska</author>
						<creationTime>2024-03-26T07:51:25.000Z</creationTime>
					</creationInfo>
					<phase>Sg</phase>
					<pickID>smi:igf.edu.pl/dblumineos.igf.edu.pl#Pick173960</pickID>
					<azimuth>-33.0084264126</azimuth>
					<distance>0.0587866522483</distance>
					<takeoffAngle>
						<value>19.1520204553</value>
					</takeoffAngle>
					<timeResidual>0.11665587704</timeResidual>
					<timeWeight>1</timeWeight>
					<incidenceAngle>
						<value>4.16076304552</value>
					</incidenceAngle>
				</arrival>
				<arrival publicID="smi:igf.edu.pl/d3965774-7c08-4bc1-8b3f-7c51afc859b2#arrival_66027e7d">
					<creationInfo>
						<agencyID>IGF</agencyID>
						<agencyURI>www.igf.edu.pl</agencyURI>
						<author>Tymi�ska</author>
						<creationTime>2024-03-26T07:51:25.000Z</creationTime>
					</creationInfo>
					<phase>Pg</phase>
					<pickID>smi:igf.edu.pl/dblumineos.igf.edu.pl#Pick173961</pickID>
					<azimuth>63.3507577366</azimuth>
					<distance>0.116421659878</distance>
					<takeoffAngle>
						<value>19.1757643196</value>
					</takeoffAngle>
					<timeResidual>-0.365169595469</timeResidual>
					<timeWeight>1</timeWeight>
					<incidenceAngle>
						<value>4.18589634382</value>
					</incidenceAngle>
				</arrival>
				<arrival publicID="smi:igf.edu.pl/8b2535a4-ceb8-4a21-bcfc-dc23c94b1b86#arrival_66027e7d">
					<creationInfo>
						<agencyID>IGF</agencyID>
						<agencyURI>www.igf.edu.pl</agencyURI>
						<author>Tymi�ska</author>
						<creationTime>2024-03-26T07:51:25.000Z</creationTime>
					</creationInfo>
					<phase>Sg</phase>
					<pickID>smi:igf.edu.pl/dblumineos.igf.edu.pl#Pick173962</pickID>
					<azimuth>63.3507577366</azimuth>
					<distance>0.11643172628</distance>
					<takeoffAngle>
						<value>19.1520204553</value>
					</takeoffAngle>
					<timeResidual>0.103236389707</timeResidual>
					<timeWeight>1</timeWeight>
					<incidenceAngle>
						<value>4.16076304552</value>
					</incidenceAngle>
				</arrival>
				<arrival publicID="smi:igf.edu.pl/6624a6d5-efbc-4f8a-aa41-5739e5d3c1f7#arrival_66027e7d">
					<creationInfo>
						<agencyID>IGF</agencyID>
						<agencyURI>www.igf.edu.pl</agencyURI>
						<author>Tymi�ska</author>
						<creationTime>2024-03-26T07:51:25.000Z</creationTime>
					</creationInfo>
					<phase>Pg</phase>
					<pickID>smi:igf.edu.pl/dblumineos.igf.edu.pl#Pick173963</pickID>
					<azimuth>-32.8227967841</azimuth>
					<distance>0.100353898785</distance>
					<takeoffAngle>
						<value>19.1757643196</value>
					</takeoffAngle>
					<timeResidual>-0.0441285003894</timeResidual>
					<timeWeight>1</timeWeight>
					<incidenceAngle>
						<value>4.18589634382</value>
					</incidenceAngle>
				</arrival>
				<arrival publicID="smi:igf.edu.pl/b678467d-3183-4cd5-94f5-a6340301d81b#arrival_66027e7d">
					<creationInfo>
						<agencyID>IGF</agencyID>
						<agencyURI>www.igf.edu.pl</agencyURI>
						<author>Tymi�ska</author>
						<creationTime>2024-03-26T07:51:25.000Z</creationTime>
					</creationInfo>
					<phase>Sg</phase>
					<pickID>smi:igf.edu.pl/dblumineos.igf.edu.pl#Pick173964</pickID>
					<azimuth>-32.8227967841</azimuth>
					<distance>0.100364134439</distance>
					<takeoffAngle>
						<value>19.1520204553</value>
					</takeoffAngle>
					<timeResidual>0.413922635052</timeResidual>
					<timeWeight>1</timeWeight>
					<incidenceAngle>
						<value>4.16076304552</value>
					</incidenceAngle>
				</arrival>
				<arrival publicID="smi:igf.edu.pl/0df22145-7bae-4bb5-8de8-ae14ec449f85#arrival_66027e7d">
					<creationInfo>
						<agencyID>IGF</agencyID>
						<agencyURI>www.igf.edu.pl</agencyURI>
						<author>Tymi�ska</author>
						<creationTime>2024-03-26T07:51:25.000Z</creationTime>
					</creationInfo>
					<phase>Pg</phase>
					<pickID>smi:igf.edu.pl/dblumineos.igf.edu.pl#Pick173965</pickID>
					<azimuth>5.11168769434</azimuth>
					<distance>0.0630337009687</distance>
					<takeoffAngle>
						<value>19.1757643196</value>
					</takeoffAngle>
					<timeResidual>-0.221856487524</timeResidual>
					<timeWeight>1</timeWeight>
					<incidenceAngle>
						<value>4.18589634382</value>
					</incidenceAngle>
				</arrival>
				<arrival publicID="smi:igf.edu.pl/bf2b0f81-1a10-4394-ba16-a1cff4543118#arrival_66027e7d">
					<creationInfo>
						<agencyID>IGF</agencyID>
						<agencyURI>www.igf.edu.pl</agencyURI>
						<author>Tymi�ska</author>
						<creationTime>2024-03-26T07:51:25.000Z</creationTime>
					</creationInfo>
					<phase>Sg</phase>
					<pickID>smi:igf.edu.pl/dblumineos.igf.edu.pl#Pick173966</pickID>
					<azimuth>5.11168769434</azimuth>
					<distance>0.0630438924703</distance>
					<takeoffAngle>
						<value>19.1520204553</value>
					</takeoffAngle>
					<timeResidual>-0.150955519722</timeResidual>
					<timeWeight>1</timeWeight>
					<incidenceAngle>
						<value>4.16076304552</value>
					</incidenceAngle>
				</arrival>
				<arrival publicID="smi:igf.edu.pl/c7a55dd1-2453-4836-9031-05e9af28f818#arrival_66027e7d">
					<creationInfo>
						<agencyID>IGF</agencyID>
						<agencyURI>www.igf.edu.pl</agencyURI>
						<author>Tymi�ska</author>
						<creationTime>2024-03-26T07:51:25.000Z</creationTime>
					</creationInfo>
					<phase>Pg</phase>
					<pickID>smi:igf.edu.pl/dblumineos.igf.edu.pl#Pick173969</pickID>
					<azimuth>70.9880301291</azimuth>
					<distance>0.0574857496308</distance>
					<takeoffAngle>
						<value>19.1757643196</value>
					</takeoffAngle>
					<timeResidual>-0.0710086075916</timeResidual>
					<timeWeight>1</timeWeight>
					<incidenceAngle>
						<value>4.18589634382</value>
					</incidenceAngle>
				</arrival>
				<arrival publicID="smi:igf.edu.pl/dabc7320-f39f-490c-aa86-4f116d4abb07#arrival_66027e7d">
					<creationInfo>
						<agencyID>IGF</agencyID>
						<agencyURI>www.igf.edu.pl</agencyURI>
						<author>Tymi�ska</author>
						<creationTime>2024-03-26T07:51:25.000Z</creationTime>
					</creationInfo>
					<phase>Sg</phase>
					<pickID>smi:igf.edu.pl/dblumineos.igf.edu.pl#Pick173970</pickID>
					<azimuth>70.9880301291</azimuth>
					<distance>0.0574960588729</distance>
					<takeoffAngle>
						<value>19.1520204553</value>
					</takeoffAngle>
					<timeResidual>0.233926776587</timeResidual>
					<timeWeight>1</timeWeight>
					<incidenceAngle>
						<value>4.16076304552</value>
					</incidenceAngle>
				</arrival>
				<arrival publicID="smi:igf.edu.pl/ba2efd27-5302-4481-9481-4faa89d0515a#arrival_66027e7d">
					<creationInfo>
						<agencyID>IGF</agencyID>
						<agencyURI>www.igf.edu.pl</agencyURI>
						<author>Tymi�ska</author>
						<creationTime>2024-03-26T07:51:25.000Z</creationTime>
					</creationInfo>
					<phase>Pg</phase>
					<pickID>smi:igf.edu.pl/dblumineos.igf.edu.pl#Pick173971</pickID>
					<azimuth>17.6005314505</azimuth>
					<distance>0.0931502624094</distance>
					<takeoffAngle>
						<value>19.1757643196</value>
					</takeoffAngle>
					<timeResidual>-0.251488525229</timeResidual>
					<timeWeight>1</timeWeight>
					<incidenceAngle>
						<value>4.18589634382</value>
					</incidenceAngle>
				</arrival>
				<arrival publicID="smi:igf.edu.pl/72a5534c-6dd0-44a3-8860-1d7f71e78078#arrival_66027e7d">
					<creationInfo>
						<agencyID>IGF</agencyID>
						<agencyURI>www.igf.edu.pl</agencyURI>
						<author>Tymi�ska</author>
